[{"OBJECT_NAME":"UHETSAT","OBJECT_ID":"2023-185E","EPOCH":"2026-03-09T22:39:26.455680","MEAN_MOTION":15.29797662,"ECCENTRICITY":0.00118435,"INCLINATION":97.3584,"RA_OF_ASC_NODE":137.3576,"ARG_OF_PERICENTER":307.7346,"MEAN_ANOMALY":52.2821,"EPHEMERIS_TYPE":0,"CLASSIFICATION_TYPE":"U","NORAD_CAT_ID":58466,"ELEMENT_SET_NO":999,"REV_AT_EPOCH":12611,"BSTAR":0.00030513019,"MEAN_MOTION_DOT":8.749e-5,"MEAN_MOTION_DDOT":0},{"OBJECT_NAME":"STARLINK-33931","OBJECT_ID":"2025-101N","EPOCH":"2026-03-09T04:39:54.488160","MEAN_MOTION":15.27602185,"ECCENTRICITY":0.00012252,"INCLINATION":43.0027,"RA_OF_ASC_NODE":0.4019,"ARG_OF_PERICENTER":290.8123,"MEAN_ANOMALY":69.2597,"EPHEMERIS_TYPE":0,"CLASSIFICATION_TYPE":"U","NORAD_CAT_ID":64006,"ELEMENT_SET_NO":999,"REV_AT_EPOCH":4700,"BSTAR":0.00097277126,"MEAN_MOTION_DOT":0.00026621,"MEAN_MOTION_DDOT":0}]
